DISKSAT A               
1 67219U 25305A   25352.25791201  .00000705  00000+0  64033-4 0  9995
2 67219  45.0103 321.2665 0004355 276.2808  83.7571 15.05868419    14
DISKSAT B               
1 67220U 25305B   25352.25791133  .00001486  00000+0  11832-3 0  9996
2 67220  45.0065 321.2700 0003917 288.0087  72.0361 15.05411903    16
DISKSAT C               
1 67221U 25305C   25352.25800440  .00002734  00000+0  14323-3 0  9994
2 67221  45.0151 321.1654 0062593 307.7869  51.7353 15.16973586    19
DISKSAT D               
1 67222U 25305D   25352.32421190  .00004130  00000+0  29211-3 0  9998
2 67222  45.0527 320.6724 0008825 241.9782 118.0201 15.06357331    12
ELECTRON KICK STAGE R/B 
1 67223U 25305E   25352.25796233  .00018378  00000+0  18044-3 0  9995
2 67223  44.9944 321.2861 0180362 136.4210 225.1089 15.48092024    19
ELECTRON R/B            
1 67224U 25305F   25352.76890193  .00172783  86369-5  22935-3 0  9995
2 67224  45.0188 318.3021 0262888 280.1207  77.0133 15.64663678    93
