CCSDS_OMM_VERS = 2.0
CREATION_DATE  = 
ORIGINATOR     = 

OBJECT_NAME    = DISKSAT A
OBJECT_ID      = 2025-305A
CENTER_NAME    = EARTH
REF_FRAME      = TEME
TIME_SYSTEM    = UTC
MEAN_ELEMENT_THEORY = SGP/SGP4

EPOCH          = 2025-12-18T06:11:23.597664
MEAN_MOTION    = 15.05868419
ECCENTRICITY   = .00043552
INCLINATION    = 45.0103
RA_OF_ASC_NODE = 321.2665
ARG_OF_PERICENTER = 276.2808
MEAN_ANOMALY   = 83.7571

EPHEMERIS_TYPE = 0
CLASSIFICATION_TYPE = U
NORAD_CAT_ID   = 67219
ELEMENT_SET_NO = 999
REV_AT_EPOCH   = 1
BSTAR          = .64032814E-4
MEAN_MOTION_DOT = .705E-5
MEAN_MOTION_DDOT = 0

CCSDS_OMM_VERS = 2.0
CREATION_DATE  = 
ORIGINATOR     = 

OBJECT_NAME    = DISKSAT B
OBJECT_ID      = 2025-305B
CENTER_NAME    = EARTH
REF_FRAME      = TEME
TIME_SYSTEM    = UTC
MEAN_ELEMENT_THEORY = SGP/SGP4

EPOCH          = 2025-12-18T06:11:23.538912
MEAN_MOTION    = 15.05411903
ECCENTRICITY   = .0003917
INCLINATION    = 45.0065
RA_OF_ASC_NODE = 321.2700
ARG_OF_PERICENTER = 288.0087
MEAN_ANOMALY   = 72.0361

EPHEMERIS_TYPE = 0
CLASSIFICATION_TYPE = U
NORAD_CAT_ID   = 67220
ELEMENT_SET_NO = 999
REV_AT_EPOCH   = 1
BSTAR          = .11832E-3
MEAN_MOTION_DOT = .1486E-4
MEAN_MOTION_DDOT = 0

CCSDS_OMM_VERS = 2.0
CREATION_DATE  = 
ORIGINATOR     = 

OBJECT_NAME    = DISKSAT C
OBJECT_ID      = 2025-305C
CENTER_NAME    = EARTH
REF_FRAME      = TEME
TIME_SYSTEM    = UTC
MEAN_ELEMENT_THEORY = SGP/SGP4

EPOCH          = 2025-12-18T06:11:31.580160
MEAN_MOTION    = 15.16973586
ECCENTRICITY   = .00625938
INCLINATION    = 45.0151
RA_OF_ASC_NODE = 321.1654
ARG_OF_PERICENTER = 307.7869
MEAN_ANOMALY   = 51.7353

EPHEMERIS_TYPE = 0
CLASSIFICATION_TYPE = U
NORAD_CAT_ID   = 67221
ELEMENT_SET_NO = 999
REV_AT_EPOCH   = 1
BSTAR          = .14323237E-3
MEAN_MOTION_DOT = .2734E-4
MEAN_MOTION_DDOT = 0

CCSDS_OMM_VERS = 2.0
CREATION_DATE  = 
ORIGINATOR     = 

OBJECT_NAME    = DISKSAT D
OBJECT_ID      = 2025-305D
CENTER_NAME    = EARTH
REF_FRAME      = TEME
TIME_SYSTEM    = UTC
MEAN_ELEMENT_THEORY = SGP/SGP4

EPOCH          = 2025-12-18T07:46:51.908160
MEAN_MOTION    = 15.06357331
ECCENTRICITY   = .00088258
INCLINATION    = 45.0527
RA_OF_ASC_NODE = 320.6724
ARG_OF_PERICENTER = 241.9782
MEAN_ANOMALY   = 118.0201

EPHEMERIS_TYPE = 0
CLASSIFICATION_TYPE = U
NORAD_CAT_ID   = 67222
ELEMENT_SET_NO = 999
REV_AT_EPOCH   = 1
BSTAR          = .29211464E-3
MEAN_MOTION_DOT = .413E-4
MEAN_MOTION_DDOT = 0

CCSDS_OMM_VERS = 2.0
CREATION_DATE  = 
ORIGINATOR     = 

OBJECT_NAME    = ELECTRON KICK STAGE R/B
OBJECT_ID      = 2025-305E
CENTER_NAME    = EARTH
REF_FRAME      = TEME
TIME_SYSTEM    = UTC
MEAN_ELEMENT_THEORY = SGP/SGP4

EPOCH          = 2025-12-18T06:11:27.945312
MEAN_MOTION    = 15.48092024
ECCENTRICITY   = .01803623
INCLINATION    = 44.9944
RA_OF_ASC_NODE = 321.2861
ARG_OF_PERICENTER = 136.4210
MEAN_ANOMALY   = 225.1089

EPHEMERIS_TYPE = 0
CLASSIFICATION_TYPE = U
NORAD_CAT_ID   = 67223
ELEMENT_SET_NO = 999
REV_AT_EPOCH   = 1
BSTAR          = .18043632E-3
MEAN_MOTION_DOT = .18378E-3
MEAN_MOTION_DDOT = 0

CCSDS_OMM_VERS = 2.0
CREATION_DATE  = 
ORIGINATOR     = 

OBJECT_NAME    = ELECTRON R/B
OBJECT_ID      = 2025-305F
CENTER_NAME    = EARTH
REF_FRAME      = TEME
TIME_SYSTEM    = UTC
MEAN_ELEMENT_THEORY = SGP/SGP4

EPOCH          = 2025-12-18T18:27:13.126752
MEAN_MOTION    = 15.64663678
ECCENTRICITY   = .0262888
INCLINATION    = 45.0188
RA_OF_ASC_NODE = 318.3021
ARG_OF_PERICENTER = 280.1207
MEAN_ANOMALY   = 77.0133

EPHEMERIS_TYPE = 0
CLASSIFICATION_TYPE = U
NORAD_CAT_ID   = 67224
ELEMENT_SET_NO = 999
REV_AT_EPOCH   = 9
BSTAR          = .22935E-3
MEAN_MOTION_DOT = .172783E-2
MEAN_MOTION_DDOT = .86369E-5

